QIANFAN-9               
1 60387U 24140J   25268.91667803  .00000094  00000+0  12641-3 0  9997
2 60387  88.9777 307.4017 0018146  66.7145 293.5914 13.50971377 56820
QIANFAN-10              
1 60388U 24140K   25268.99485736  .00000094  00000+0  12631-3 0  9998
2 60388  88.9783 306.7336 0016050  46.4904 313.7578 13.50968655 56965
QIANFAN-11              
1 60389U 24140L   25268.95778414  .00000091  00000+0  12175-3 0  9993
2 60389  88.9710 307.3824 0016173  66.7830 293.5022 13.50969179 56617
QIANFAN-12              
1 60390U 24140M   25268.97830617  .00000089  00000+0  11949-3 0  9996
2 60390  88.9753 307.3896 0015133  74.2451 286.0368 13.50969229 56743
QIANFAN-13              
1 60391U 24140N   25269.02358794  .00000106  00000+0  14571-3 0  9999
2 60391  88.9768 307.4752 0014993  76.4657 283.8163 13.50969385 56771
QIANFAN-14              
1 60392U 24140P   25268.97413593  .00000082  00000+0  10799-3 0  9993
2 60392  88.9746 307.3946 0018677  75.8401 284.4824 13.50970139 56775
QIANFAN-15              
1 60393U 24140Q   25268.98240519  .00000097  00000+0  13086-3 0  9999
2 60393  88.9767 307.3319 0014241  64.7368 295.5257 13.50973663 56762
QIANFAN-16              
1 60394U 24140R   25268.97015778  .00000084  00000+0  11053-3 0  9994
2 60394  88.9773 307.4509 0016655  79.5968 280.7060 13.50969214 56678
